EARTHCARE               
1 59908U 24101A   24211.18729321  .00015978  00000+0  23551-3 0  9990
2 59908  96.9833 337.9451 0002416 321.1027  39.0054 15.55469757  9512
